STARLINK-2514
1 28331C 21036BH  21325.13282655 -.00018702  00000-0 -12528-2 0  3259
2 28331  53.0555 307.6287 0001886  59.2689  70.2432 15.06423174    11
